H1 CPF 01  gfz 2021 09 21 12  7642 terrasarx 
H2 0702601  6201 31698    2021 09 21 12 59 42 2021 09 26 00 00 42   120 1 1  0 0 0
H9
10 0 59479  10062.000000  0    4561097.522   5162940.835     92465.071
10 0 59479  10182.000000  0    4662241.364   5008946.565   -810860.864
10 0 59479  10302.000000  0    4678500.304   4766453.562  -1699928.648
10 0 59479  10422.000000  0    4608152.812   4441259.332  -2559125.130
10 0 59479  10542.000000  0    4451114.233   4040624.146  -3373390.929
10 0 59479  10662.000000  0    4208954.815   3573106.984  -4128488.113
10 0 59479  10782.000000  0    3884884.172   3048378.615  -4811248.151
10 0 59479  10902.000000  0    3483704.719   2477017.338  -5409797.275
10 0 59479  11022.000000  0    3011734.273   1870292.367  -5913755.900
10 0 59479  11142.000000  0    2476700.102   1239939.338  -6314408.445
10 0 59479  11262.000000  0    1887607.454    597933.508  -6604842.033
10 0 59479  11382.000000  0    1254586.773    -43734.571  -6780053.957
10 0 59479  11502.000000  0     588720.682   -673278.665  -6837030.540
10 0 59479  11622.000000  0     -98148.290  -1279328.935  -6774792.212
10 0 59479  11742.000000  0    -793622.762  -1851131.188  -6594407.337
10 0 59479  11862.000000  0   -1484968.575  -2378732.918  -6298977.134
10 0 59479  11982.000000  0   -2159342.795  -2853154.361  -5893587.989
10 0 59479  12102.000000  0   -2804027.051  -3266540.269  -5385232.903
10 0 59479  12222.000000  0   -3406665.146  -3612292.311  -4782703.367
10 0 59479  12342.000000  0   -3955501.159  -3885179.020  -4096448.369
10 0 59479  12462.000000  0   -4439611.358  -4081419.690  -3338403.084
10 0 59479  12582.000000  0   -4849126.573  -4198741.338  -2521789.298
10 0 59479  12702.000000  0   -5175439.368  -4236406.416  -1660888.830
10 0 59479  12822.000000  0   -5411390.558  -4195209.734   -770794.305
10 0 59479  12942.000000  0   -5551430.282  -4077444.616    132858.327
10 0 59479  13062.000000  0   -5591749.393  -3886838.728   1034170.675
10 0 59479  13182.000000  0   -5530376.177  -3628460.190   1917271.171
10 0 59479  13302.000000  0   -5367235.080  -3308595.192   2766604.202
10 0 59479  13422.000000  0   -5104166.989  -2934601.887   3567212.009
10 0 59479  13542.000000  0   -4744910.872  -2514744.446   4305004.811
10 0 59479  13662.000000  0   -4295046.277  -2058010.225   4967012.727
10 0 59479  13782.000000  0   -3761899.876  -1573916.604   5541612.759
10 0 59479  13902.000000  0   -3154420.079  -1072312.514   6018730.280
10 0 59479  14022.000000  0   -2483020.268   -563177.013   6390012.840
10 0 59479  14142.000000  0   -1759393.161    -56419.260   6648970.710
10 0 59479  14262.000000  0    -996302.511    438313.475   6791082.624
10 0 59479  14382.000000  0    -207356.836    911817.665   6813869.624
10 0 59479  14502.000000  0     593233.036   1355503.961   6716935.554
10 0 59479  14622.000000  0    1390909.161   1761552.989   6501973.715
10 0 59479  14742.000000  0    2171030.468   2123053.348   6172738.471
10 0 59479  14862.000000  0    2919140.783   2434119.494   5734984.101
10 0 59479  14982.000000  0    3621238.713   2689989.132   5196370.790
10 0 59479  15102.000000  0    4264043.242   2887097.794   4566335.988
10 0 59479  15222.000000  0    4835248.905   3023129.360   3855934.760
10 0 59479  15342.000000  0    5323770.247   3097041.717   3077650.872
10 0 59479  15462.000000  0    5719965.482   3109064.229   2245175.508
10 0 59479  15582.000000  0    6015832.758   3060669.796   1373165.124
10 0 59479  15702.000000  0    6205178.303   2954521.408    476977.951
10 0 59479  15822.000000  0    6283748.585   2794392.783   -427605.063
10 0 59479  15942.000000  0    6249322.830   2585064.920  -1324667.453
10 0 59479  16062.000000  0    6101764.212   2332202.895  -2198444.367
10 0 59479  16182.000000  0    5843031.269   2042217.567  -3033606.581
10 0 59479  16302.000000  0    5477146.225   1722112.171  -3815534.589
10 0 59479  16422.000000  0    5010122.975   1379319.403  -4530576.278
10 0 59479  16542.000000  0    4449855.541   1021533.248  -5166282.599
10 0 59479  16662.000000  0    3805973.302    656541.255  -5711616.744
10 0 59479  16782.000000  0    3089666.611    292059.637  -6157136.619
10 0 59479  16902.000000  0    2313485.065    -64425.017  -6495147.526
10 0 59479  17022.000000  0    1491114.834   -405804.739  -6719823.130
10 0 59479  17142.000000  0     637138.816   -725487.478  -6827296.736
10 0 59479  17262.000000  0    -233219.597  -1017520.437  -6815720.561
10 0 59479  17382.000000  0   -1104361.528  -1276697.202  -6685292.706
10 0 59479  17502.000000  0   -1960585.321  -1498648.219  -6438254.997
10 0 59479  17622.000000  0   -2786363.614  -1679913.261  -6078858.118
10 0 59479  17742.000000  0   -3566618.458  -1817994.504  -5613295.845
10 0 59479  17862.000000  0   -4286994.636  -1911390.862  -5049610.590
10 0 59479  17982.000000  0   -4934126.415  -1959611.664  -4397565.796
10 0 59479  18102.000000  0   -5495890.570  -1963169.287  -3668487.740
10 0 59479  18222.000000  0   -5961642.427  -1923551.052  -2875078.010
10 0 59479  18342.000000  0   -6322428.302  -1843170.045  -2031197.597
10 0 59479  18462.000000  0   -6571169.038  -1725295.603  -1151626.932
10 0 59479  18582.000000  0   -6702809.696  -1573965.109   -251805.157
10 0 59479  18702.000000  0   -6714431.022  -1393878.564    652446.112
10 0 59479  18822.000000  0   -6605318.594  -1190278.400   1545208.991
10 0 59479  18942.000000  0   -6376987.206   -968818.066   2410758.655
10 0 59479  19062.000000  0   -6033160.243   -735422.716   3233849.184
10 0 59479  19182.000000  0   -5579704.673   -496144.952   3999990.018
10 0 59479  19302.000000  0   -5024521.803   -257019.961   4695706.538
10 0 59479  19422.000000  0   -4377399.105    -23924.219   5308777.579
10 0 59479  19542.000000  0   -3649828.829    197560.097   5828448.371
10 0 59479  19662.000000  0   -2854794.714    402271.116   6245616.207
10 0 59479  19782.000000  0   -2006532.381    585580.683   6552984.141
10 0 59479  19902.000000  0   -1120269.141    743493.395   6745183.163
10 0 59479  20022.000000  0    -211947.528    872730.202   6818859.578
10 0 59479  20142.000000  0     702061.391    970794.171   6772729.060
10 0 59479  20262.000000  0    1605251.863   1036018.151   6607597.599
10 0 59479  20382.000000  0    2481280.465   1067593.476   6326348.365
10 0 59479  20502.000000  0    3314261.473   1065578.782   5933895.167
10 0 59479  20622.000000  0    4089057.384   1030889.107   5437101.636
10 0 59479  20742.000000  0    4791556.913    965265.580   4844666.533
10 0 59479  20862.000000  0    5408938.438    871225.783   4166979.169
10 0 59479  20982.000000  0    5929914.291    751996.336   3415941.493
10 0 59479  21102.000000  0    6344947.132    611428.918   2604759.469
10 0 59479  21222.000000  0    6646433.110    453900.474   1747709.966
10 0 59479  21342.000000  0    6828851.317    284201.081    859885.936
10 0 59479  21462.000000  0    6888870.583    107411.808    -43076.413
10 0 59479  21582.000000  0    6825413.854    -71224.722   -945281.614
10 0 59479  21702.000000  0    6639675.839   -246437.371  -1830864.042
10 0 59479  21822.000000  0    6335094.825   -413059.562  -2684274.991
10 0 59479  21942.000000  0    5917279.957   -566159.501  -3490561.052
10 0 59479  22062.000000  0    5393896.557   -701163.770  -4235628.902
10 0 59479  22182.000000  0    4774512.278   -813970.850  -4906490.477
10 0 59479  22302.000000  0    4070410.208   -901052.062  -5491483.817
10 0 59479  22422.000000  0    3294373.538   -959539.150  -5980468.015
10 0 59479  22542.000000  0    2460445.676   -987296.247  -6364988.825
10 0 59479  22662.000000  0    1583672.243   -982973.472  -6638413.201
10 0 59479  22782.000000  0     679830.113   -946043.370  -6796032.712
10 0 59479  22902.000000  0    -234853.070   -876819.402  -6835136.469
10 0 59479  23022.000000  0   -1143984.255   -776455.273  -6755051.973
10 0 59479  23142.000000  0   -2031291.839   -646926.159  -6557155.934
10 0 59479  23262.000000  0   -2880910.652   -490991.220  -6244852.173
10 0 59479  23382.000000  0   -3677658.798   -312138.808  -5823518.938
10 0 59479  23502.000000  0   -4407306.770   -114514.445  -5300427.449
10 0 59479  23622.000000  0   -5056833.394     97167.294  -4684626.963
10 0 59479  23742.000000  0   -5614663.139    317725.002  -3986800.420
10 0 59479  23862.000000  0   -6070882.552    541626.577  -3219089.692
10 0 59479  23982.000000  0   -6417428.521    763115.982  -2394891.565
10 0 59479  24102.000000  0   -6648243.599    976348.490  -1528627.481
10 0 59479  24222.000000  0   -6759395.385   1175530.681   -635491.521
10 0 59479  24342.000000  0   -6749154.646   1355061.906    268822.069
10 0 59479  24462.000000  0   -6618027.208   1509673.219   1168401.375
10 0 59479  24582.000000  0   -6368743.299   1634561.343   2047404.488
10 0 59479  24702.000000  0   -6006201.841   1725513.444   2890347.863
10 0 59479  24822.000000  0   -5537370.364   1779018.921   3682387.908
10 0 59479  24942.000000  0   -4971143.143   1792365.399   4409588.456
10 0 59479  25062.000000  0   -4318163.040   1763717.079   5059168.285
10 0 59479  25182.000000  0   -3590612.410   1692173.771   5619724.982
10 0 59479  25302.000000  0   -2801978.050   1577809.436   6081432.833
10 0 59479  25422.000000  0   -1966793.298   1421689.811   6436211.647
10 0 59479  25542.000000  0   -1100363.495   1225867.660   6677861.693
10 0 59479  25662.000000  0    -218482.532    993356.805   6802164.678
10 0 59479  25782.000000  0     662854.816    728085.610   6806952.124
10 0 59479  25902.000000  0    1527741.840    434830.367   6692140.663
10 0 59479  26022.000000  0    2360645.603    119129.924   6459733.498
10 0 59479  26142.000000  0    3146685.358   -212817.839   6113788.868
10 0 59479  26262.000000  0    3871900.440   -554276.103   5660353.954
10 0 59479  26382.000000  0    4523501.674   -898103.558   5107364.524
10 0 59479  26502.000000  0    5090102.559  -1236901.435   4464512.443
99
